ONEWEB-0350             
1 49214U 21083AE  24185.79284894 -.00000290  00000+0 -82972-3 0  9998
2 49214  87.8934 102.2166 0001582  79.6077 280.5231 13.13468086137283
ONEWEB-0352             
1 49216U 21083AG  24186.00234229  .00000180  00000+0  45870-3 0  9994
2 49216  87.8938 102.2066 0002060  69.8903 290.2448 13.13471727138701
ONEWEB-0354             
1 49217U 21083AH  24185.88287574  .00000163  00000+0  36959-3 0  9990
2 49217  87.9200  56.3455 0001499  79.7569 280.3733 13.20769808142653
ONEWEB-0355             
1 49218U 21083AJ  24185.80395385 -.00000239  00000+0 -68828-3 0  9999
2 49218  87.8934 102.2450 0001904  73.9699 286.1640 13.13468285137252
ONEWEB-0332             
1 49279U 21090A   24186.14722159  .00000184  00000+0  46240-3 0  9996
2 49279  87.8954  71.5804 0002176  75.0788 285.0582 13.14501829133900
